{
  "type": "FeatureCollection",
  "name": "Oneida Civic Atlas Step 4 Map Features",
  "metadata": {
    "crs": "WGS84 / RFC 7946",
    "generated_from": "oneida_civic_atlas_step3_verified.json",
    "generated_date": "2026-09-12",
    "rule": "Null geometry is intentional where no defensible coordinate, line, or polygon was established.",
    "feature_count": 22
  },
  "features": [
    {
      "type": "Feature",
      "id": "P001-DRI",
      "geometry": null,
      "properties": {
        "project_id": "P001",
        "project_name": "Oneida DRI portfolio",
        "category": "Development",
        "status": "IMPLEMENTATION",
        "intended_geometry_type": "AREA",
        "verified_location": "Downtown Oneida DRI area",
        "ward": null,
        "ward_assignment_status": "PENDING GIS / ward spatial join",
        "jurisdiction": "City of Oneida + NYS Department of State + private/project partners",
        "lead_entity": "City of Oneida / NYS Department of State",
        "geo_confidence": "MODERATE",
        "research_confidence": "HIGH",
        "next_milestone": "Track each subproject separately through design, funding, procurement, construction, or reprogramming.",
        "open_questions": "Obtain current DRI spending/reimbursement ledger by project.",
        "source_urls": "https://www.oneidacityny.gov/departments/city_clerk/agendas_meetings.php | https://www.oneidacityny.gov/Documents/Agendas%20and%20Meetings-Council/Attachments/DRI%20Project%20Status%20Update%20for%20Common%20Council%20March%202026.pdf?t=202603131209140 | https://www.governor.ny.gov/news/governor-hochul-announces-transformational-projects-oneida-part-10-million-downtown | https://www.oneidacityny.gov/departments/planning_development/dri.php",
        "last_verified_date": "2026-09-12",
        "feature_id": "P001-DRI",
        "feature_kind": "program_area",
        "geometry_status": "dri_boundary_pending",
        "site_name": "Downtown Oneida DRI area",
        "address": null,
        "parcel_ids": null,
        "street_names": null,
        "source_map_url": "https://www.oneidacityny.gov/departments/planning_development/dri.php",
        "coordinate_source": null,
        "coordinate_confidence": null,
        "coordinate_note": "Use authoritative DRI target-area polygon when acquired; do not approximate from narrative."
      }
    },
    {
      "type": "Feature",
      "id": "P002-S1",
      "geometry": {
        "type": "Point",
        "coordinates": [
          -75.65723,
          43.10282
        ]
      },
      "properties": {
        "project_id": "P002",
        "project_name": "Veterans Memorial Park improvements",
        "category": "Parks / Development",
        "status": "DESIGN",
        "intended_geometry_type": "POINT",
        "verified_location": "Veterans Memorial Field",
        "ward": null,
        "ward_assignment_status": "PENDING official ward spatial join",
        "jurisdiction": "City of Oneida + NYS Department of State",
        "lead_entity": "City of Oneida / C&S Engineers",
        "geo_confidence": "HIGH",
        "research_confidence": "HIGH",
        "next_milestone": "Final design/state review and bid schedule.",
        "open_questions": "Obtain final design estimate and anticipated bid date.",
        "source_urls": "https://www.oneidacityny.gov/Documents/Agendas%20and%20Meetings-Council/Attachments/DRI%20Project%20Status%20Update%20for%20Common%20Council%20March%202026.pdf?t=202603131209140 | https://www.oneidacityny.gov/departments/city_clerk/agendas_meetings.php | https://oneidacityny.gov/departments/parks_recreation/city_parks.php",
        "last_verified_date": "2026-09-12",
        "feature_id": "P002-S1",
        "feature_kind": "project_site",
        "geometry_status": "mapped_point",
        "site_name": "Veterans Memorial Field",
        "address": "360 North Main Street, Oneida, NY 13421",
        "parcel_ids": null,
        "street_names": null,
        "source_map_url": null,
        "coordinate_source": "OpenStreetMap via Mapcarta | https://mapcarta.com/W220363357",
        "coordinate_confidence": "HIGH",
        "coordinate_note": "Exact municipal address is independently verified by the City of Oneida; coordinate comes from OSM."
      }
    },
    {
      "type": "Feature",
      "id": "P003-S1",
      "geometry": {
        "type": "Point",
        "coordinates": [
          -75.6507,
          43.0939
        ]
      },
      "properties": {
        "project_id": "P003",
        "project_name": "Hotel Oneida redevelopment",
        "category": "Development / Housing",
        "status": "CONSTRUCTION",
        "intended_geometry_type": "POINT",
        "verified_location": "Former Hotel Oneida",
        "ward": null,
        "ward_assignment_status": "PENDING official ward spatial join",
        "jurisdiction": "Private developer + City of Oneida + NYS DRI",
        "lead_entity": "Private developer / City planning review",
        "geo_confidence": "HIGH",
        "research_confidence": "MODERATE",
        "next_milestone": "Verify current construction schedule and financing milestones.",
        "open_questions": "What is the current verified completion schedule and financing status?",
        "source_urls": "https://www.oneidacityny.gov/departments/city_clerk/agendas_meetings.php | https://www.oneidacityny.gov/Documents/Agendas%20and%20Meetings-Boards/Packets/Planning%20Packet%203-10-26.pdf?t=202603090819040 | https://www.oneidacityny.gov/Documents/Agendas%20and%20Meetings-Council/Attachments/DRI%20Project%20Status%20Update%20for%20Common%20Council%20March%202026.pdf?t=202603131209140",
        "last_verified_date": "2026-09-12",
        "feature_id": "P003-S1",
        "feature_kind": "project_site",
        "geometry_status": "mapped_point_external_coordinate",
        "site_name": "Hotel Oneida",
        "address": "181 Main Street, Oneida, NY 13421",
        "parcel_ids": "30.80-1-54",
        "street_names": null,
        "source_map_url": null,
        "coordinate_source": "Wikimedia Commons object location / OpenStreetMap reference | https://commons.wikimedia.org/wiki/File:Hotel_Oneida_typical_floor_plan.png",
        "coordinate_confidence": "MODERATE",
        "coordinate_note": "Coordinate identifies Hotel Oneida at 181 Main Street; authoritative city record independently verifies address and parcel."
      }
    },
    {
      "type": "Feature",
      "id": "P004-CORRIDOR",
      "geometry": null,
      "properties": {
        "project_id": "P004",
        "project_name": "Downtown streetscape",
        "category": "Transportation / Development",
        "status": "FUNDING",
        "intended_geometry_type": "LINE",
        "verified_location": "Downtown street segments",
        "ward": null,
        "ward_assignment_status": "MULTI-WARD JOIN PENDING",
        "jurisdiction": "City of Oneida + NYS/federal transportation funding partners",
        "lead_entity": "City of Oneida / C&S Engineers",
        "geo_confidence": "HIGH",
        "research_confidence": "HIGH",
        "next_milestone": "Secure supplemental funding and finalize affordable scope.",
        "open_questions": "Was supplemental transportation funding awarded, and what final scope is affordable?",
        "source_urls": "https://www.oneidacityny.gov/Documents/Agendas%20and%20Meetings-Council/Attachments/DRI%20Project%20Status%20Update%20for%20Common%20Council%20March%202026.pdf?t=202603131209140 | https://www.oneidacityny.gov/departments/city_clerk/agendas_meetings.php | https://www.governor.ny.gov/news/governor-hochul-announces-transformational-projects-oneida-part-10-million-downtown",
        "last_verified_date": "2026-09-12",
        "feature_id": "P004-CORRIDOR",
        "feature_kind": "corridor",
        "geometry_status": "street_names_verified_limits_pending",
        "site_name": null,
        "address": null,
        "parcel_ids": null,
        "street_names": [
          "Main Street",
          "Broad Street",
          "Madison Street",
          "Farrier Avenue",
          "Vanderbilt Avenue",
          "Sconondoa Street"
        ],
        "source_map_url": null,
        "coordinate_source": null,
        "coordinate_confidence": null,
        "coordinate_note": "State DRI source verifies named streets; exact block limits/design geometry remain unresolved."
      }
    },
    {
      "type": "Feature",
      "id": "P005-S1",
      "geometry": null,
      "properties": {
        "project_id": "P005",
        "project_name": "AYSO soccer fields",
        "category": "Parks / Recreation",
        "status": "FUNDING",
        "intended_geometry_type": "AREA",
        "verified_location": "Wilson Avenue Site / former FEMA flood-site property",
        "ward": null,
        "ward_assignment_status": "PENDING official ward spatial join",
        "jurisdiction": "City of Oneida + NYS DRI",
        "lead_entity": "City of Oneida / project design team",
        "geo_confidence": "HIGH",
        "research_confidence": "HIGH",
        "next_milestone": "Finalize reduced or supplemented scope.",
        "open_questions": "What final scope will be delivered within available funding?",
        "source_urls": "https://www.oneidacityny.gov/Documents/Agendas%20and%20Meetings-Council/Attachments/DRI%20Project%20Status%20Update%20for%20Common%20Council%20March%202026.pdf?t=202603131209140 | https://www.oneidacityny.gov/departments/city_clerk/agendas_meetings.php | https://www.governor.ny.gov/news/governor-hochul-announces-transformational-projects-oneida-part-10-million-downtown",
        "last_verified_date": "2026-09-12",
        "feature_id": "P005-S1",
        "feature_kind": "project_site",
        "geometry_status": "site_name_verified_polygon_pending",
        "site_name": "AYSO / Wilson Avenue site",
        "address": "Wilson Avenue, Oneida, NY",
        "parcel_ids": null,
        "street_names": null,
        "source_map_url": null,
        "coordinate_source": null,
        "coordinate_confidence": null,
        "coordinate_note": "Site identity is verified; parcel/flood-buyout polygon is still needed."
      }
    },
    {
      "type": "Feature",
      "id": "P006-DRI",
      "geometry": null,
      "properties": {
        "project_id": "P006",
        "project_name": "Downtown Business Assistance Fund",
        "category": "Economic Development",
        "status": "IMPLEMENTATION",
        "intended_geometry_type": "AREA",
        "verified_location": "Downtown DRI Business Assistance Fund eligibility area",
        "ward": null,
        "ward_assignment_status": "PENDING recipient-site and ward join",
        "jurisdiction": "City of Oneida + NYS DRI + participating private businesses",
        "lead_entity": "City of Oneida / program administrator",
        "geo_confidence": "MODERATE",
        "research_confidence": "MODERATE",
        "next_milestone": "Publish project-by-project awards, reimbursements, and completions.",
        "open_questions": "What projects received funds, how much has been reimbursed, and what remains open?",
        "source_urls": "https://www.oneidacityny.gov/Documents/Agendas%20and%20Meetings-Council/Attachments/DRI%20Project%20Status%20Update%20for%20Common%20Council%20March%202026.pdf?t=202603131209140 | https://www.oneidacityny.gov/departments/city_clerk/agendas_meetings.php | https://www.oneidacityny.gov/departments/planning_development/dri.php",
        "last_verified_date": "2026-09-12",
        "feature_id": "P006-DRI",
        "feature_kind": "program_area",
        "geometry_status": "dri_boundary_pending",
        "site_name": "Downtown DRI Business Assistance Fund eligibility area",
        "address": null,
        "parcel_ids": null,
        "street_names": null,
        "source_map_url": "https://www.oneidacityny.gov/departments/planning_development/dri.php",
        "coordinate_source": null,
        "coordinate_confidence": null,
        "coordinate_note": "Use authoritative DRI target-area polygon when acquired; do not approximate from narrative."
      }
    },
    {
      "type": "Feature",
      "id": "P007-CITYWIDE",
      "geometry": null,
      "properties": {
        "project_id": "P007",
        "project_name": "Comprehensive plan / form-based code",
        "category": "Planning / Zoning",
        "status": "STUDY",
        "intended_geometry_type": "CITYWIDE",
        "verified_location": "Citywide comprehensive plan; form-based zoning overlay focused on downtown DRI area",
        "ward": null,
        "ward_assignment_status": "CITYWIDE + DRI AREA",
        "jurisdiction": "City of Oneida",
        "lead_entity": "City of Oneida / planning consultants / committee",
        "geo_confidence": "HIGH",
        "research_confidence": "HIGH",
        "next_milestone": "Committee/consultant work toward updated comprehensive plan and zoning framework.",
        "open_questions": "Resolve $150K vs $100K source discrepancy and document current consultant scope/timeline.",
        "source_urls": "https://www.oneidacityny.gov/departments/city_clerk/agendas_meetings.php | https://www.oneidacityny.gov/planning/page/request-professional-planning-services-comprehensive-plan-and-form-based-zoning | https://www.oneidacityny.gov/Documents/Agendas%20and%20Meetings-Council/Minutes/Minutes%202-3-26.pdf?t=202602050829440 | https://www.oneidacityny.gov/Documents/Agendas%20and%20Meetings-Council/Attachments/DRI%20Project%20Status%20Update%20for%20Common%20Council%20March%202026.pdf?t=202603131209140 | https://www.governor.ny.gov/news/governor-hochul-announces-transformational-projects-oneida-part-10-million-downtown",
        "last_verified_date": "2026-09-12",
        "feature_id": "P007-CITYWIDE",
        "feature_kind": "planning_area",
        "geometry_status": "nonspatial_citywide",
        "site_name": "Citywide comprehensive-plan scope",
        "address": null,
        "parcel_ids": null,
        "street_names": null,
        "source_map_url": null,
        "coordinate_source": null,
        "coordinate_confidence": null,
        "coordinate_note": "Comprehensive plan is citywide. Form-based zoning sublayer should later use DRI-area geometry."
      }
    },
    {
      "type": "Feature",
      "id": "P008-LERMAN",
      "geometry": null,
      "properties": {
        "project_id": "P008",
        "project_name": "Devereaux / Lerman DRI projects",
        "category": "Development",
        "status": "STALLED / REPROGRAMMING",
        "intended_geometry_type": "POINT",
        "verified_location": "Devereaux: 144–148 Main Street / related Madison St properties; Lerman: 153–155 Madison Street",
        "ward": null,
        "ward_assignment_status": "PENDING official ward spatial join",
        "jurisdiction": "Private project sponsors + City of Oneida + NYS Department of State",
        "lead_entity": "NYS Department of State / City of Oneida / project sponsors",
        "geo_confidence": "HIGH",
        "research_confidence": "MODERATE",
        "next_milestone": "Determine state reprogramming decision and public review process for replacement use.",
        "open_questions": "What will happen to the awards, and will replacement projects receive public input?",
        "source_urls": "https://www.oneidacityny.gov/departments/city_clerk/agendas_meetings.php | https://www.oneidacityny.gov/Documents/Agendas%20and%20Meetings-Council/Attachments/DRI%20Project%20Status%20Update%20for%20Common%20Council%20March%202026.pdf?t=202603131209140",
        "last_verified_date": "2026-09-12",
        "feature_id": "P008-LERMAN",
        "feature_kind": "project_site",
        "geometry_status": "verified_address_pending_geocode",
        "site_name": "Lerman DRI site",
        "address": "153–155 Madison Street, Oneida, NY",
        "parcel_ids": null,
        "street_names": null,
        "source_map_url": null,
        "coordinate_source": null,
        "coordinate_confidence": null,
        "coordinate_note": "Address verified in city DRI materials; parcel geometry/geocode remains pending."
      }
    },
    {
      "type": "Feature",
      "id": "P008-DEV",
      "geometry": null,
      "properties": {
        "project_id": "P008",
        "project_name": "Devereaux / Lerman DRI projects",
        "category": "Development",
        "status": "STALLED / REPROGRAMMING",
        "intended_geometry_type": "POINT",
        "verified_location": "Devereaux: 144–148 Main Street / related Madison St properties; Lerman: 153–155 Madison Street",
        "ward": null,
        "ward_assignment_status": "PENDING official ward spatial join",
        "jurisdiction": "Private project sponsors + City of Oneida + NYS Department of State",
        "lead_entity": "NYS Department of State / City of Oneida / project sponsors",
        "geo_confidence": "HIGH",
        "research_confidence": "MODERATE",
        "next_milestone": "Determine state reprogramming decision and public review process for replacement use.",
        "open_questions": "What will happen to the awards, and will replacement projects receive public input?",
        "source_urls": "https://www.oneidacityny.gov/departments/city_clerk/agendas_meetings.php | https://www.oneidacityny.gov/Documents/Agendas%20and%20Meetings-Council/Attachments/DRI%20Project%20Status%20Update%20for%20Common%20Council%20March%202026.pdf?t=202603131209140",
        "last_verified_date": "2026-09-12",
        "feature_id": "P008-DEV",
        "feature_kind": "project_site",
        "geometry_status": "multi_parcel_geometry_pending",
        "site_name": "Devereaux DRI site",
        "address": "144–148 Main Street and related Madison Street properties, Oneida, NY",
        "parcel_ids": null,
        "street_names": null,
        "source_map_url": null,
        "coordinate_source": null,
        "coordinate_confidence": null,
        "coordinate_note": "Multi-property project; do not collapse to a single point until parcel list is complete."
      }
    },
    {
      "type": "Feature",
      "id": "P009-BASINS",
      "geometry": null,
      "properties": {
        "project_id": "P009",
        "project_name": "Sewer inflow & infiltration (I&I) improvements",
        "category": "Infrastructure / Sewer",
        "status": "STUDY",
        "intended_geometry_type": "AREA",
        "verified_location": "City sewer collection system / targeted I&I basins",
        "ward": null,
        "ward_assignment_status": "PENDING basin geometry + ward overlay",
        "jurisdiction": "City of Oneida + environmental/financing agencies",
        "lead_entity": "City of Oneida / engineering consultant",
        "geo_confidence": "HIGH",
        "research_confidence": "HIGH",
        "next_milestone": "Move from study/environmental work into design/financing/construction decisions.",
        "open_questions": "Acquire authoritative basin polygons/maps and final financing package.",
        "source_urls": "https://www.oneidacityny.gov/departments/city_clerk/agendas_meetings.php",
        "last_verified_date": "2026-09-12",
        "feature_id": "P009-BASINS",
        "feature_kind": "infrastructure_area",
        "geometry_status": "official_map_pending_digitization",
        "site_name": "Sewer I&I study basins",
        "address": null,
        "parcel_ids": null,
        "street_names": null,
        "source_map_url": "https://www.oneidacityny.gov/departments/city_clerk/Documents/Agendas%20and%20Meetings-Council/Attachments/Sewer%20Collection%20Study%20and%20Improvements-Maps.pdf?t=202607080824100",
        "coordinate_source": null,
        "coordinate_confidence": null,
        "coordinate_note": "Official study map exists. Geometry must be extracted/georeferenced before polygons are added."
      }
    },
    {
      "type": "Feature",
      "id": "P010-ZONE",
      "geometry": null,
      "properties": {
        "project_id": "P010",
        "project_name": "Water high-pressure zone study",
        "category": "Infrastructure / Water",
        "status": "STUDY",
        "intended_geometry_type": "AREA",
        "verified_location": "High-pressure water service zone",
        "ward": null,
        "ward_assignment_status": "PENDING zone geometry + ward overlay",
        "jurisdiction": "City of Oneida / Water Department",
        "lead_entity": "City of Oneida / GHD",
        "geo_confidence": "HIGH",
        "research_confidence": "HIGH",
        "next_milestone": "Review study recommendations and identify infrastructure improvements.",
        "open_questions": "Obtain authoritative zone map and capital-cost estimate.",
        "source_urls": "https://www.oneidacityny.gov/departments/city_clerk/agendas_meetings.php | https://oneidacityny.gov/departments/city_clerk/legal_notices.php",
        "last_verified_date": "2026-09-12",
        "feature_id": "P010-ZONE",
        "feature_kind": "infrastructure_area",
        "geometry_status": "official_map_pending_digitization",
        "site_name": "High-pressure water zone",
        "address": null,
        "parcel_ids": null,
        "street_names": null,
        "source_map_url": "https://www.oneidacityny.gov/departments/city_clerk/Documents/Agendas%20and%20Meetings-Council/Attachments/GHD%20High%20Pressure%20Zone%20Study%20Proposal.pdf?t=202608140839500",
        "coordinate_source": null,
        "coordinate_confidence": null,
        "coordinate_note": "Official GHD study exists. Zone geometry must be extracted/georeferenced before a polygon is added."
      }
    },
    {
      "type": "Feature",
      "id": "P011-S1",
      "geometry": null,
      "properties": {
        "project_id": "P011",
        "project_name": "Route 5 / Genesee Street development",
        "category": "Housing / Development",
        "status": "IDEA",
        "intended_geometry_type": "AREA",
        "verified_location": "South side of Genesee Street (Route 5), about 400 ft west of Fultz Drive",
        "ward": null,
        "ward_assignment_status": "PENDING official ward spatial join",
        "jurisdiction": "Private developer + City of Oneida planning/zoning + possible IDA/grant partners",
        "lead_entity": "Private developer / City planning review",
        "geo_confidence": "HIGH",
        "research_confidence": "HIGH",
        "next_milestone": "Formal application, zoning/SEQR review, infrastructure plan and financing.",
        "open_questions": "Has a formal application been submitted since the preliminary presentation?",
        "source_urls": "https://www.oneidacityny.gov/departments/city_clerk/agendas_meetings.php | https://www.oneidacityny.gov/Documents/Agendas%20and%20Meetings-Council/Attachments/Route%205%20Development%20Project.pdf?t=202604081442410",
        "last_verified_date": "2026-09-12",
        "feature_id": "P011-S1",
        "feature_kind": "project_site",
        "geometry_status": "parcel_geometry_pending",
        "site_name": "Route 5 / Genesee Street development",
        "address": "Genesee Street / Route 5, about 400 ft west of Fultz Drive, Oneida, NY",
        "parcel_ids": "38.69-1-11; 38.70-1-2",
        "street_names": null,
        "source_map_url": "https://www.oneidacityny.gov/Documents/Agendas%20and%20Meetings-Council/Attachments/Route%205%20Development%20Project.pdf?t=202604081442410",
        "coordinate_source": null,
        "coordinate_confidence": null,
        "coordinate_note": "Official concept plan verifies two parcels and 41.64 acres. Polygon should be imported from parcel GIS, not hand-drawn from the PDF."
      }
    },
    {
      "type": "Feature",
      "id": "P012-CITYWIDE",
      "geometry": null,
      "properties": {
        "project_id": "P012",
        "project_name": "Property Accountability and Occupancy Initiative",
        "category": "Housing / Code Enforcement",
        "status": "PUBLIC REVIEW",
        "intended_geometry_type": "CITYWIDE",
        "verified_location": "Citywide policy / enforcement initiative",
        "ward": "All wards",
        "ward_assignment_status": "ALL WARDS",
        "jurisdiction": "City of Oneida",
        "lead_entity": "City administration / Code Enforcement / Common Council",
        "geo_confidence": "HIGH",
        "research_confidence": "HIGH",
        "next_milestone": "Determine which legal/policy options Council selects for implementation.",
        "open_questions": "What, if anything, did Council select from the legal matrix?",
        "source_urls": "https://www.oneidacityny.gov/departments/city_clerk/agendas_meetings.php",
        "last_verified_date": "2026-09-12",
        "feature_id": "P012-CITYWIDE",
        "feature_kind": "nonspatial_or_citywide",
        "geometry_status": "nonspatial_citywide",
        "site_name": "Citywide policy / enforcement initiative",
        "address": null,
        "parcel_ids": null,
        "street_names": null,
        "source_map_url": null,
        "coordinate_source": null,
        "coordinate_confidence": null,
        "coordinate_note": "No map pin is appropriate. Dashboard should render this as a citywide/non-spatial policy or service layer."
      }
    },
    {
      "type": "Feature",
      "id": "P013-CITYWIDE",
      "geometry": null,
      "properties": {
        "project_id": "P013",
        "project_name": "Vacant-building registry and enforcement",
        "category": "Housing / Code Enforcement",
        "status": "IMPLEMENTATION",
        "intended_geometry_type": "CITYWIDE",
        "verified_location": "Citywide; property-level registry locations not yet acquired",
        "ward": null,
        "ward_assignment_status": "ALL WARDS / property join pending",
        "jurisdiction": "City of Oneida / Code Enforcement",
        "lead_entity": "Code Enforcement",
        "geo_confidence": "HIGH",
        "research_confidence": "HIGH",
        "next_milestone": "Acquire quarterly registry/reporting data and measure outcomes.",
        "open_questions": "Obtain quarterly vacant-building registry reports and property-level status history.",
        "source_urls": "https://www.oneidacityny.gov/government/ | https://ecode360.com/27520160",
        "last_verified_date": "2026-09-12",
        "feature_id": "P013-CITYWIDE",
        "feature_kind": "nonspatial_or_citywide",
        "geometry_status": "nonspatial_citywide",
        "site_name": "Citywide; property-level registry locations not yet acquired",
        "address": null,
        "parcel_ids": null,
        "street_names": null,
        "source_map_url": null,
        "coordinate_source": null,
        "coordinate_confidence": null,
        "coordinate_note": "No map pin is appropriate. Dashboard should render this as a citywide/non-spatial policy or service layer."
      }
    },
    {
      "type": "Feature",
      "id": "P014-SEGMENTS",
      "geometry": null,
      "properties": {
        "project_id": "P014",
        "project_name": "2025 sidewalk replacement program",
        "category": "Transportation / Pedestrian",
        "status": "COMPLETE",
        "intended_geometry_type": "LINE",
        "verified_location": "Multiple 2025 sidewalk-replacement segments",
        "ward": null,
        "ward_assignment_status": "PENDING segment geometry + ward overlay",
        "jurisdiction": "City of Oneida + affected property owners",
        "lead_entity": "City of Oneida / DPW / engineering",
        "geo_confidence": "HIGH",
        "research_confidence": "HIGH",
        "next_milestone": "Close out assessments and plan future sidewalk phases.",
        "open_questions": "Acquire segment-level project list and identify future sidewalk priorities.",
        "source_urls": "https://www.oneidacityny.gov/departments/city_clerk/agendas_meetings.php | https://oneidacityny.gov/departments/city_clerk/legal_notices.php",
        "last_verified_date": "2026-09-12",
        "feature_id": "P014-SEGMENTS",
        "feature_kind": "pedestrian_corridor",
        "geometry_status": "segment_list_pending",
        "site_name": "2025 sidewalk replacement segments",
        "address": null,
        "parcel_ids": null,
        "street_names": null,
        "source_map_url": null,
        "coordinate_source": null,
        "coordinate_confidence": null,
        "coordinate_note": "Construction status is verified, but segment-level assessment/project list must be imported before drawing lines."
      }
    },
    {
      "type": "Feature",
      "id": "P015-CITYWIDE",
      "geometry": null,
      "properties": {
        "project_id": "P015",
        "project_name": "Wireless communications / tower regulations",
        "category": "Planning / Zoning",
        "status": "COMPLETE",
        "intended_geometry_type": "CITYWIDE",
        "verified_location": "Citywide regulatory jurisdiction",
        "ward": "All wards",
        "ward_assignment_status": "ALL WARDS",
        "jurisdiction": "City of Oneida",
        "lead_entity": "Common Council / planning and code administration",
        "geo_confidence": "HIGH",
        "research_confidence": "HIGH",
        "next_milestone": "Monitor implementation through future applications.",
        "open_questions": "How will the new standards affect future applications in practice?",
        "source_urls": "https://www.oneidacityny.gov/departments/city_clerk/agendas_meetings.php | https://oneidacityny.gov/departments/city_clerk/legal_notices.php",
        "last_verified_date": "2026-09-12",
        "feature_id": "P015-CITYWIDE",
        "feature_kind": "nonspatial_or_citywide",
        "geometry_status": "nonspatial_citywide",
        "site_name": "Citywide regulatory jurisdiction",
        "address": null,
        "parcel_ids": null,
        "street_names": null,
        "source_map_url": null,
        "coordinate_source": null,
        "coordinate_confidence": null,
        "coordinate_note": "No map pin is appropriate. Dashboard should render this as a citywide/non-spatial policy or service layer."
      }
    },
    {
      "type": "Feature",
      "id": "P016-S1",
      "geometry": {
        "type": "Point",
        "coordinates": [
          -75.65335,
          43.09642
        ]
      },
      "properties": {
        "project_id": "P016",
        "project_name": "Public EV charging infrastructure",
        "category": "Transportation / Energy",
        "status": "PROCUREMENT",
        "intended_geometry_type": "POINT",
        "verified_location": "Two municipal EV charging sites",
        "ward": null,
        "ward_assignment_status": "PENDING official ward spatial join",
        "jurisdiction": "City of Oneida + NYS DEC grant program + vendor",
        "lead_entity": "City of Oneida",
        "geo_confidence": "HIGH",
        "research_confidence": "HIGH",
        "next_milestone": "Determine procurement award, installation schedule, pricing and operations.",
        "open_questions": "Who won the procurement, or was no award made?",
        "source_urls": "https://www.oneidacityny.gov/departments/city_clerk/agendas_meetings.php | https://www.oneidacityny.gov/departments/comptroller/bids_rfps.php",
        "last_verified_date": "2026-09-12",
        "feature_id": "P016-S1",
        "feature_kind": "project_site",
        "geometry_status": "mapped_point",
        "site_name": "EV charging site 1 / City Hall",
        "address": "109 North Main Street, Oneida, NY 13421",
        "parcel_ids": null,
        "street_names": null,
        "source_map_url": null,
        "coordinate_source": "OpenStreetMap via Mapcarta | https://mapcarta.com/26664118",
        "coordinate_confidence": "HIGH",
        "coordinate_note": "Exact municipal address 109 N Main Street is independently verified by City of Oneida records."
      }
    },
    {
      "type": "Feature",
      "id": "P016-S2",
      "geometry": null,
      "properties": {
        "project_id": "P016",
        "project_name": "Public EV charging infrastructure",
        "category": "Transportation / Energy",
        "status": "PROCUREMENT",
        "intended_geometry_type": "POINT",
        "verified_location": "Two municipal EV charging sites",
        "ward": null,
        "ward_assignment_status": "PENDING official ward spatial join",
        "jurisdiction": "City of Oneida + NYS DEC grant program + vendor",
        "lead_entity": "City of Oneida",
        "geo_confidence": "HIGH",
        "research_confidence": "HIGH",
        "next_milestone": "Determine procurement award, installation schedule, pricing and operations.",
        "open_questions": "Who won the procurement, or was no award made?",
        "source_urls": "https://www.oneidacityny.gov/departments/city_clerk/agendas_meetings.php | https://www.oneidacityny.gov/departments/comptroller/bids_rfps.php",
        "last_verified_date": "2026-09-12",
        "feature_id": "P016-S2",
        "feature_kind": "project_site",
        "geometry_status": "verified_address_pending_geocode",
        "site_name": "EV charging site 2",
        "address": "129 Cedar Street, Oneida, NY 13421",
        "parcel_ids": null,
        "street_names": null,
        "source_map_url": null,
        "coordinate_source": null,
        "coordinate_confidence": null,
        "coordinate_note": "Address is verified from the City RFP; no coordinate was added because no sufficiently reliable coordinate source was established in this pass."
      }
    },
    {
      "type": "Feature",
      "id": "P017-SCHOOLS",
      "geometry": null,
      "properties": {
        "project_id": "P017",
        "project_name": "School Resource Officer agreement",
        "category": "Public Safety / Education",
        "status": "APPROVED",
        "intended_geometry_type": "AREA",
        "verified_location": "Oneida City School District buildings",
        "ward": null,
        "ward_assignment_status": "PENDING school-site layer + ward overlay",
        "jurisdiction": "City of Oneida + Oneida City School District",
        "lead_entity": "Oneida Police Department / School District",
        "geo_confidence": "MODERATE",
        "research_confidence": "MODERATE",
        "next_milestone": "Track implementation, duties, reporting and agreement renewal.",
        "open_questions": "What are the exact cost-sharing terms and reporting requirements?",
        "source_urls": "https://www.oneidacityny.gov/departments/city_clerk/agendas_meetings.php",
        "last_verified_date": "2026-09-12",
        "feature_id": "P017-SCHOOLS",
        "feature_kind": "multi_site_program",
        "geometry_status": "school_site_layer_pending",
        "site_name": "Oneida City School District buildings",
        "address": null,
        "parcel_ids": null,
        "street_names": null,
        "source_map_url": null,
        "coordinate_source": null,
        "coordinate_confidence": null,
        "coordinate_note": "Program is multi-site. Add verified school points rather than a single arbitrary location."
      }
    },
    {
      "type": "Feature",
      "id": "P018-CITYWIDE",
      "geometry": null,
      "properties": {
        "project_id": "P018",
        "project_name": "City financial management / capital capacity",
        "category": "Finance",
        "status": "IMPLEMENTATION",
        "intended_geometry_type": "CITYWIDE",
        "verified_location": "Citywide fiscal / capital-management layer",
        "ward": "All wards",
        "ward_assignment_status": "ALL WARDS",
        "jurisdiction": "City of Oneida",
        "lead_entity": "City administration / Common Council / contracted finance support",
        "geo_confidence": "HIGH",
        "research_confidence": "HIGH",
        "next_milestone": "Complete audit/policy updates and maintain current public financial reporting.",
        "open_questions": "Reconstruct 2026 fund balance, debt issuance and capital commitments from current records.",
        "source_urls": "https://www.oneidacityny.gov/departments/city_clerk/agendas_meetings.php | https://www.oneidacityny.gov/departments/comptroller/audited_financial_reports.php | https://www.oneidacityny.gov/sites/default/files/fileattachments/common_council/meeting/3206/minutes_12-31-24.pdf",
        "last_verified_date": "2026-09-12",
        "feature_id": "P018-CITYWIDE",
        "feature_kind": "nonspatial_or_citywide",
        "geometry_status": "nonspatial_citywide",
        "site_name": "Citywide fiscal / capital-management layer",
        "address": null,
        "parcel_ids": null,
        "street_names": null,
        "source_map_url": null,
        "coordinate_source": null,
        "coordinate_confidence": null,
        "coordinate_note": "No map pin is appropriate. Dashboard should render this as a citywide/non-spatial policy or service layer."
      }
    },
    {
      "type": "Feature",
      "id": "P019-COVERAGE",
      "geometry": null,
      "properties": {
        "project_id": "P019",
        "project_name": "Madison County Connect broadband buildout",
        "category": "Broadband / Infrastructure",
        "status": "CONSTRUCTION",
        "intended_geometry_type": "AREA",
        "verified_location": "Madison County broadband buildout; address-level Oneida service eligibility varies",
        "ward": null,
        "ward_assignment_status": "WARD 3 GAP STATUS UNRESOLVED",
        "jurisdiction": "Madison County + NYS ConnectALL + USDA + Empire Access + contractors",
        "lead_entity": "Madison County / project partners",
        "geo_confidence": "HIGH",
        "research_confidence": "HIGH",
        "next_milestone": "Complete remaining fiber construction and identify exact unserved/underserved addresses.",
        "open_questions": "Does Ward 3 contain meaningful remaining broadband gaps?",
        "source_urls": "https://www.madisoncounty.ny.gov/2765/Madison-County-Connect",
        "last_verified_date": "2026-09-12",
        "feature_id": "P019-COVERAGE",
        "feature_kind": "coverage_area",
        "geometry_status": "official_interactive_map_address_join_pending",
        "site_name": "Madison County Connect coverage/buildout",
        "address": null,
        "parcel_ids": null,
        "street_names": null,
        "source_map_url": "https://www.madisoncounty.ny.gov/2765/Madison-County-Connect",
        "coordinate_source": null,
        "coordinate_confidence": null,
        "coordinate_note": "County provides project/coverage maps and address-level availability workflow. Oneida/Ward 3 residual gaps require address-layer extraction."
      }
    },
    {
      "type": "Feature",
      "id": "P020-CITYWIDE",
      "geometry": null,
      "properties": {
        "project_id": "P020",
        "project_name": "Housing insecurity / behavioral health response",
        "category": "Social Services / Public Safety",
        "status": "IMPLEMENTATION",
        "intended_geometry_type": "CITYWIDE",
        "verified_location": "Citywide / county human-services network",
        "ward": null,
        "ward_assignment_status": "CITYWIDE / COUNTY SERVICE NETWORK",
        "jurisdiction": "Madison County DSS / Mental Health + City of Oneida + community providers",
        "lead_entity": "Madison County agencies + Oneida Police + service providers",
        "geo_confidence": "MODERATE",
        "research_confidence": "MODERATE",
        "next_milestone": "Build a verified inventory of emergency, transitional and supportive housing capacity.",
        "open_questions": "What is the actual inventory and utilization of emergency, transitional and supportive housing?",
        "source_urls": "https://www.oneidacityny.gov/departments/city_clerk/agendas_meetings.php",
        "last_verified_date": "2026-09-12",
        "feature_id": "P020-CITYWIDE",
        "feature_kind": "nonspatial_or_citywide",
        "geometry_status": "nonspatial_citywide",
        "site_name": "Citywide / county human-services network",
        "address": null,
        "parcel_ids": null,
        "street_names": null,
        "source_map_url": null,
        "coordinate_source": null,
        "coordinate_confidence": null,
        "coordinate_note": "No map pin is appropriate. Dashboard should render this as a citywide/non-spatial policy or service layer."
      }
    }
  ]
}